{"type": "FeatureCollection", "features": [{"type": "Feature", "properties": {"norad_id": 24876, "name": "GPS BIIR-2  (PRN 13)", "group": "gps-ops", "lat": 45.210590536531704, "lon": -117.00947139218742, "alt_km": 20062.497945637057, "timestamp": "2025-12-09T09:46:47.903855+00:00", "meta": {"OBJECT_NAME": "GPS BIIR-2  (PRN 13)", "OBJECT_ID": "1997-035A", "EPOCH": "2025-12-08T17:51:24.025248", "MEAN_MOTION": 2.00563531, "ECCENTRICITY": 0.00967341, "INCLINATION": 55.8934, "RA_OF_ASC_NODE": 106.0252, "ARG_OF_PERICENTER": 57.0084, "MEAN_ANOMALY": 303.8909, "EPHEMERIS_TYPE": 0, "CLASSIFICATION_TYPE": "U", "NORAD_CAT_ID": 24876, "ELEMENT_SET_NO": 999, "REV_AT_EPOCH": 20813, "BSTAR": 0, "MEAN_MOTION_DOT": 1.8e-07, "MEAN_MOTION_DDOT": 0}, "tle": {"line1": "1 24876U 97035A   25342.74402807  .00000018  00000+0  00000+0 0  9996", "line2": "2 24876  55.8934 106.0252 0096734  57.0084 303.8909  2.00563531208133"}}, "geometry": {"type": "Point", "coordinates": [-117.00947139218742, 45.210590536531704]}}, {"type": "Feature", "properties": {"norad_id": 26360, "name": "GPS BIIR-4  (PRN 20)", "group": "gps-ops", "lat": -25.453080105728805, "lon": -133.57410224576384, "alt_km": 20095.53381560711, "timestamp": "2025-12-09T09:46:47.903882+00:00", "meta": {"OBJECT_NAME": "GPS BIIR-4  (PRN 20)", "OBJECT_ID": "2000-025A", "EPOCH": "2025-12-08T05:53:38.603616", "MEAN_MOTION": 2.00567966, "ECCENTRICITY": 0.00388423, "INCLINATION": 55.0425, "RA_OF_ASC_NODE": 27.0197, "ARG_OF_PERICENTER": 241.5588, "MEAN_ANOMALY": 211.3182, "EPHEMERIS_TYPE": 0, "CLASSIFICATION_TYPE": "U", "NORAD_CAT_ID": 26360, "ELEMENT_SET_NO": 999, "REV_AT_EPOCH": 18744, "BSTAR": 0, "MEAN_MOTION_DOT": -8.7e-07, "MEAN_MOTION_DDOT": 0}, "tle": {"line1": "1 26360U 00025A   25342.24558569 -.00000087  00000+0  00000+0 0  9998", "line2": "2 26360  55.0425  27.0197 0038842 241.5588 211.3182  2.00567966187447"}}, "geometry": {"type": "Point", "coordinates": [-133.57410224576384, -25.453080105728805]}}, {"type": "Feature", "properties": {"norad_id": 26407, "name": "GPS BIIR-5  (PRN 22)", "group": "gps-ops", "lat": 40.61811064495912, "lon": -100.21007127247857, "alt_km": 20292.942347877957, "timestamp": "2025-12-09T09:46:47.903899+00:00", "meta": {"OBJECT_NAME": "GPS BIIR-5  (PRN 22)", "OBJECT_ID": "2000-040A", "EPOCH": "2025-12-08T20:20:05.545824", "MEAN_MOTION": 2.00567841, "ECCENTRICITY": 0.01262241, "INCLINATION": 54.8917, "RA_OF_ASC_NODE": 222.7238, "ARG_OF_PERICENTER": 301.7361, "MEAN_ANOMALY": 65.1974, "EPHEMERIS_TYPE": 0, "CLASSIFICATION_TYPE": "U", "NORAD_CAT_ID": 26407, "ELEMENT_SET_NO": 999, "REV_AT_EPOCH": 18613, "BSTAR": 0, "MEAN_MOTION_DOT": 1e-07, "MEAN_MOTION_DDOT": 0}, "tle": {"line1": "1 26407U 00040A   25342.84728641  .00000010  00000+0  00000+0 0  9998", "line2": "2 26407  54.8917 222.7238 0126224 301.7361  65.1974  2.00567841186133"}}, "geometry": {"type": "Point", "coordinates": [-100.21007127247857, 40.61811064495912]}}, {"type": "Feature", "properties": {"norad_id": 27663, "name": "GPS BIIR-8  (PRN 16)", "group": "gps-ops", "lat": -6.893584524717798, "lon": 47.38951059546126, "alt_km": 20464.832398822706, "timestamp": "2025-12-09T09:46:47.903913+00:00", "meta": {"OBJECT_NAME": "GPS BIIR-8  (PRN 16)", "OBJECT_ID": "2003-005A", "EPOCH": "2025-12-08T15:56:33.296928", "MEAN_MOTION": 2.00571063, "ECCENTRICITY": 0.0147293, "INCLINATION": 54.9243, "RA_OF_ASC_NODE": 222.5404, "ARG_OF_PERICENTER": 51.7448, "MEAN_ANOMALY": 318.8801, "EPHEMERIS_TYPE": 0, "CLASSIFICATION_TYPE": "U", "NORAD_CAT_ID": 27663, "ELEMENT_SET_NO": 999, "REV_AT_EPOCH": 16749, "BSTAR": 0, "MEAN_MOTION_DOT": 1.2e-07, "MEAN_MOTION_DDOT": 0}, "tle": {"line1": "1 27663U 03005A   25342.66427427  .00000012  00000+0  00000+0 0  9997", "line2": "2 27663  54.9243 222.5404 0147293  51.7448 318.8801  2.00571063167497"}}, "geometry": {"type": "Point", "coordinates": [47.38951059546126, -6.893584524717798]}}, {"type": "Feature", "properties": {"norad_id": 28190, "name": "GPS BIIR-11 (PRN 19)", "group": "gps-ops", "lat": -11.289515214239719, "lon": -84.69616225110532, "alt_km": 20472.025508475213, "timestamp": "2025-12-09T09:46:47.903926+00:00", "meta": {"OBJECT_NAME": "GPS BIIR-11 (PRN 19)", "OBJECT_ID": "2004-009A", "EPOCH": "2025-12-08T00:54:44.996256", "MEAN_MOTION": 2.00560848, "ECCENTRICITY": 0.01082887, "INCLINATION": 54.99, "RA_OF_ASC_NODE": 283.4084, "ARG_OF_PERICENTER": 167.5613, "MEAN_ANOMALY": 269.7716, "EPHEMERIS_TYPE": 0, "CLASSIFICATION_TYPE": "U", "NORAD_CAT_ID": 28190, "ELEMENT_SET_NO": 999, "REV_AT_EPOCH": 15911, "BSTAR": 0, "MEAN_MOTION_DOT": -4.5e-07, "MEAN_MOTION_DDOT": 0}, "tle": {"line1": "1 28190U 04009A   25342.03802079 -.00000045  00000+0  00000+0 0  9996", "line2": "2 28190  54.9900 283.4084 0108288 167.5613 269.7716  2.00560848159112"}}, "geometry": {"type": "Point", "coordinates": [-84.69616225110532, -11.289515214239719]}}, {"type": "Feature", "properties": {"norad_id": 28474, "name": "GPS BIIR-13 (PRN 02)", "group": "gps-ops", "lat": 37.6953456224232, "lon": 4.974675445441425, "alt_km": 20241.54174904669, "timestamp": "2025-12-09T09:46:47.903939+00:00", "meta": {"OBJECT_NAME": "GPS BIIR-13 (PRN 02)", "OBJECT_ID": "2004-045A", "EPOCH": "2025-12-08T20:14:45.178080", "MEAN_MOTION": 2.0056922, "ECCENTRICITY": 0.01706882, "INCLINATION": 55.2426, "RA_OF_ASC_NODE": 332.5625, "ARG_OF_PERICENTER": 309.0781, "MEAN_ANOMALY": 49.896, "EPHEMERIS_TYPE": 0, "CLASSIFICATION_TYPE": "U", "NORAD_CAT_ID": 28474, "ELEMENT_SET_NO": 999, "REV_AT_EPOCH": 15461, "BSTAR": 0, "MEAN_MOTION_DOT": -8.3e-07, "MEAN_MOTION_DDOT": 0}, "tle": {"line1": "1 28474U 04045A   25342.84357845 -.00000083  00000+0  00000+0 0  9998", "line2": "2 28474  55.2426 332.5625 0170688 309.0781  49.8960  2.00569220154614"}}, "geometry": {"type": "Point", "coordinates": [4.974675445441425, 37.6953456224232]}}, {"type": "Feature", "properties": {"norad_id": 28874, "name": "GPS BIIRM-1 (PRN 17)", "group": "gps-ops", "lat": 5.2100357216111854, "lon": -75.5259213547937, "alt_km": 20073.321124861268, "timestamp": "2025-12-09T09:46:47.903952+00:00", "meta": {"OBJECT_NAME": "GPS BIIRM-1 (PRN 17)", "OBJECT_ID": "2005-038A", "EPOCH": "2025-12-08T21:36:40.475808", "MEAN_MOTION": 2.00578555, "ECCENTRICITY": 0.01317556, "INCLINATION": 55.0354, "RA_OF_ASC_NODE": 280.8555, "ARG_OF_PERICENTER": 293.4009, "MEAN_ANOMALY": 65.4025, "EPHEMERIS_TYPE": 0, "CLASSIFICATION_TYPE": "U", "NORAD_CAT_ID": 28874, "ELEMENT_SET_NO": 999, "REV_AT_EPOCH": 14802, "BSTAR": 0, "MEAN_MOTION_DOT": -4.9e-07, "MEAN_MOTION_DDOT": 0}, "tle": {"line1": "1 28874U 05038A   25342.90046847 -.00000049  00000+0  00000+0 0  9991", "line2": "2 28874  55.0354 280.8555 0131755 293.4009  65.4025  2.00578555148029"}}, "geometry": {"type": "Point", "coordinates": [-75.5259213547937, 5.2100357216111854]}}, {"type": "Feature", "properties": {"norad_id": 29486, "name": "GPS BIIRM-2 (PRN 31)", "group": "gps-ops", "lat": -54.59878656929117, "lon": 64.79097619683922, "alt_km": 20419.234291489276, "timestamp": "2025-12-09T09:46:47.903964+00:00", "meta": {"OBJECT_NAME": "GPS BIIRM-2 (PRN 31)", "OBJECT_ID": "2006-042A", "EPOCH": "2025-12-08T13:17:33.123840", "MEAN_MOTION": 2.00554246, "ECCENTRICITY": 0.0107364, "INCLINATION": 54.6936, "RA_OF_ASC_NODE": 158.9068, "ARG_OF_PERICENTER": 51.8598, "MEAN_ANOMALY": 320.1374, "EPHEMERIS_TYPE": 0, "CLASSIFICATION_TYPE": "U", "NORAD_CAT_ID": 29486, "ELEMENT_SET_NO": 999, "REV_AT_EPOCH": 14057, "BSTAR": 0, "MEAN_MOTION_DOT": 6e-07, "MEAN_MOTION_DDOT": 0}, "tle": {"line1": "1 29486U 06042A   25342.55385560  .00000060  00000+0  00000+0 0  9998", "line2": "2 29486  54.6936 158.9068 0107364  51.8598 320.1374  2.00554246140573"}}, "geometry": {"type": "Point", "coordinates": [64.79097619683922, -54.59878656929117]}}, {"type": "Feature", "properties": {"norad_id": 29601, "name": "GPS BIIRM-3 (PRN 12)", "group": "gps-ops", "lat": -28.127520463291464, "lon": -160.46612954266857, "alt_km": 20308.592289378452, "timestamp": "2025-12-09T09:46:47.903977+00:00", "meta": {"OBJECT_NAME": "GPS BIIRM-3 (PRN 12)", "OBJECT_ID": "2006-052A", "EPOCH": "2025-12-07T23:03:27.943776", "MEAN_MOTION": 2.00573143, "ECCENTRICITY": 0.00876753, "INCLINATION": 54.9714, "RA_OF_ASC_NODE": 221.588, "ARG_OF_PERICENTER": 87.3904, "MEAN_ANOMALY": 273.6993, "EPHEMERIS_TYPE": 0, "CLASSIFICATION_TYPE": "U", "NORAD_CAT_ID": 29601, "ELEMENT_SET_NO": 999, "REV_AT_EPOCH": 13957, "BSTAR": 0, "MEAN_MOTION_DOT": 2.2e-07, "MEAN_MOTION_DDOT": 0}, "tle": {"line1": "1 29601U 06052A   25341.96074009  .00000022  00000+0  00000+0 0  9993", "line2": "2 29601  54.9714 221.5880 0087675  87.3904 273.6993  2.00573143139579"}}, "geometry": {"type": "Point", "coordinates": [-160.46612954266857, -28.127520463291464]}}, {"type": "Feature", "properties": {"norad_id": 32260, "name": "GPS BIIRM-4 (PRN 15)", "group": "gps-ops", "lat": 50.81793432874969, "lon": -155.28118636653363, "alt_km": 19769.27193241787, "timestamp": "2025-12-09T09:46:47.903989+00:00", "meta": {"OBJECT_NAME": "GPS BIIRM-4 (PRN 15)", "OBJECT_ID": "2007-047A", "EPOCH": "2025-12-07T18:25:34.370688", "MEAN_MOTION": 2.00564615, "ECCENTRICITY": 0.01643014, "INCLINATION": 53.9519, "RA_OF_ASC_NODE": 87.9639, "ARG_OF_PERICENTER": 85.1876, "MEAN_ANOMALY": 276.6737, "EPHEMERIS_TYPE": 0, "CLASSIFICATION_TYPE": "U", "NORAD_CAT_ID": 32260, "ELEMENT_SET_NO": 999, "REV_AT_EPOCH": 13297, "BSTAR": 0, "MEAN_MOTION_DOT": -1.8e-07, "MEAN_MOTION_DDOT": 0}, "tle": {"line1": "1 32260U 07047A   25341.76775892 -.00000018  00000+0  00000+0 0  9995", "line2": "2 32260  53.9519  87.9639 0164301  85.1876 276.6737  2.00564615132978"}}, "geometry": {"type": "Point", "coordinates": [-155.28118636653363, 50.81793432874969]}}]}